GLOBALSTAR M063         
1 26081U 00008A   24150.91422917 -.00000136  00000+0 -78920-3 0  9992
2 26081  51.9978  40.9609 0004276 307.7035 134.8536 11.86154862112095
GLOBALSTAR M062         
1 26082U 00008B   24150.39422053 -.00000072  00000+0  18650-3 0  9998
2 26082  51.9818 144.3746 0007192  12.5189 135.5236 12.43436984448876
GLOBALSTAR M060         
1 26083U 00008C   24150.88300205 -.00000117  00000+0 -25660-3 0  9997
2 26083  52.0042  48.7170 0003979  62.9105  15.4229 12.17632535105679
GLOBALSTAR M064         
1 26084U 00008D   24150.39502910 -.00000065  00000+0  25294-3 0  9995
2 26084  51.9999 145.6828 0001488  29.3502 330.7414 11.88519834121464
GLOBALSTAR M072         
1 31574U 07020D   24150.82055645 -.00000075  00000+0  16026-3 0  9996
2 31574  52.0105   4.8460 0001042  85.7497  44.9796 12.62263857784408
GLOBALSTAR M071         
1 31576U 07020F   24150.53346306 -.00000064  00000+0  22082-3 0  9990
2 31576  52.0074 274.9513 0000614 105.4303  19.7562 12.62266969447284
